[{"OBJECT_NAME":"STARLINK-35914","OBJECT_ID":"2025-265S","EPOCH":"2026-03-09T23:09:11.309472","MEAN_MOTION":15.27607114,"ECCENTRICITY":0.00016422,"INCLINATION":43.0037,"RA_OF_ASC_NODE":276.5397,"ARG_OF_PERICENTER":234.5812,"MEAN_ANOMALY":125.4886,"EPHEMERIS_TYPE":0,"CLASSIFICATION_TYPE":"U","NORAD_CAT_ID":66532,"ELEMENT_SET_NO":999,"REV_AT_EPOCH":1715,"BSTAR":0.0011944838,"MEAN_MOTION_DOT":0.00032781,"MEAN_MOTION_DDOT":0},{"OBJECT_NAME":"COSMOS 1758","OBJECT_ID":"1986-046A","EPOCH":"2026-03-09T22:23:33.220896","MEAN_MOTION":15.25706639,"ECCENTRICITY":0.00131526,"INCLINATION":82.4607,"RA_OF_ASC_NODE":143.3203,"ARG_OF_PERICENTER":337.3781,"MEAN_ANOMALY":22.6875,"EPHEMERIS_TYPE":0,"CLASSIFICATION_TYPE":"U","NORAD_CAT_ID":16791,"ELEMENT_SET_NO":999,"REV_AT_EPOCH":16610,"BSTAR":0.00027304427,"MEAN_MOTION_DOT":7.006e-5,"MEAN_MOTION_DDOT":0}]
